start=new Date('2022-06-20T00:00:00.000Z').valueOf();
sats=[{"EPOCH":"2022-06-19T20:42:16.979328","OBJECT_TYPE":"PAYLOAD","REV_AT_EPOCH":"5960","SITE":"AFETR","SEMIMAJOR_AXIS":"6925.345","OBJECT_ID":"2021-044AZ","MEAN_MOTION":"15.06401039","NORAD_CAT_ID":"48685","APOAPSIS":"548.205","PERIAPSIS":"546.216","REF_FRAME":"TEME","GP_ID":"206446525","BSTAR":"0.00016746000000","MEAN_ANOMALY":"275.0172","MEAN_MOTION_DOT":"0.00002214","RCS_SIZE":"LARGE","EPHEMERIS_TYPE":"0","TLE_LINE2":"2 48685  53.0556  51.6819 0001436  85.0981 275.0172 15.06401039 59605","CENTER_NAME":"EARTH","PERIOD":"95.592","DECAY_DATE":null,"INCLINATION":"53.0556","ARG_OF_PERICENTER":"85.0981","TLE_LINE1":"1 48685U 21044AZ  22170.86269652  .00002214  00000-0  16746-3 0  9994","FILE":"3497669","MEAN_ELEMENT_THEORY":"SGP4","RA_OF_ASC_NODE":"51.6819","ELEMENT_SET_NO":"999","OBJECT_NAME":"STARLINK-2751","TIME_SYSTEM":"UTC","COUNTRY_CODE":"US","CLASSIFICATION_TYPE":"U","MEAN_MOTION_DDOT":"0.0000000000000","LAUNCH_DATE":"2021-05-26","ECCENTRICITY":"0.00014360"},{"DECAY_DATE":null,"PERIOD":"95.593","INCLINATION":"53.0568","BSTAR":"0.00009064000000","GP_ID":"206447777","REF_FRAME":"TEME","TLE_LINE2":"2 48686  53.0568  57.2384 0001763  52.9161 307.1989 15.06391750 59515","CENTER_NAME":"EARTH","EPHEMERIS_TYPE":"0","RCS_SIZE":"LARGE","MEAN_MOTION_DOT":"0.00001068","MEAN_ANOMALY":"307.1989","MEAN_MOTION":"15.06391750","OBJECT_ID":"2021-044BA","SEMIMAJOR_AXIS":"6925.374","SITE":"AFETR","PERIAPSIS":"546.018","NORAD_CAT_ID":"48686","APOAPSIS":"548.460","OBJECT_TYPE":"PAYLOAD","EPOCH":"2022-06-19T18:58:09.659712","REV_AT_EPOCH":"5951","MEAN_MOTION_DDOT":"0.0000000000000","CLASSIFICATION_TYPE":"U","LAUNCH_DATE":"2021-05-26","ECCENTRICITY":"0.00017630","TIME_SYSTEM":"UTC","OBJECT_NAME":"STARLINK-2629","COUNTRY_CODE":"US","RA_OF_ASC_NODE":"57.2384","ELEMENT_SET_NO":"999","FILE":"3497669","ARG_OF_PERICENTER":"52.9161","TLE_LINE1":"1 48686U 21044BA  22170.79038958  .00001068  00000-0  90640-4 0  9992","MEAN_ELEMENT_THEORY":"SGP4"},{"PERIOD":"95.593","DECAY_DATE":null,"INCLINATION":"53.0571","GP_ID":"206415218","REF_FRAME":"TEME","BSTAR":"0.00011687000000","MEAN_ANOMALY":"291.7714","MEAN_MOTION_DOT":"0.00001459","EPHEMERIS_TYPE":"0","RCS_SIZE":"LARGE","CENTER_NAME":"EARTH","TLE_LINE2":"2 48687  53.0571  48.8671 0001658  68.3452 291.7714 15.06393157 59597","SITE":"AFETR","SEMIMAJOR_AXIS":"6925.370","OBJECT_ID":"2021-044BB","MEAN_MOTION":"15.06393157","APOAPSIS":"548.383","NORAD_CAT_ID":"48687","PERIAPSIS":"546.086","OBJECT_TYPE":"PAYLOAD","EPOCH":"2022-06-19T08:49:02.667072","REV_AT_EPOCH":"5959","CLASSIFICATION_TYPE":"U","MEAN_MOTION_DDOT":"0.0000000000000","LAUNCH_DATE":"2021-05-26","ECCENTRICITY":"0.00016580","OBJECT_NAME":"STARLINK-2627","TIME_SYSTEM":"UTC","COUNTRY_CODE":"US","RA_OF_ASC_NODE":"48.8671","ELEMENT_SET_NO":"999","TLE_LINE1":"1 48687U 21044BB  22170.36739198  .00001459  00000-0  11687-3 0  9997","ARG_OF_PERICENTER":"68.3452","FILE":"3497010","MEAN_ELEMENT_THEORY":"SGP4"},{"REF_FRAME":"TEME","GP_ID":"206446777","BSTAR":"0.00007212200000","EPHEMERIS_TYPE":"0","RCS_SIZE":"LARGE","CENTER_NAME":"EARTH","TLE_LINE2":"2 48688  53.0561  47.6421 0001323  88.8459 271.2682 15.06391626 59631","MEAN_ANOMALY":"271.2682","MEAN_MOTION_DOT":"0.00000793","DECAY_DATE":null,"PERIOD":"95.593","INCLINATION":"53.0561","OBJECT_TYPE":"PAYLOAD","EPOCH":"2022-06-19T15:16:30.730656","REV_AT_EPOCH":"5963","SEMIMAJOR_AXIS":"6925.374","OBJECT_ID":"2021-044BC","MEAN_MOTION":"15.06391626","SITE":"AFETR","PERIAPSIS":"546.323","APOAPSIS":"548.155","NORAD_CAT_ID":"48688","TIME_SYSTEM":"UTC","OBJECT_NAME":"STARLINK-2742","COUNTRY_CODE":"US","MEAN_MOTION_DDOT":"0.0000000000000","CLASSIFICATION_TYPE":"U","LAUNCH_DATE":"2021-05-26","ECCENTRICITY":"0.00013230","TLE_LINE1":"1 48688U 21044BC  22170.63646679  .00000793  00000-0  72122-4 0  9991","ARG_OF_PERICENTER":"88.8459","FILE":"3497669","MEAN_ELEMENT_THEORY":"SGP4","RA_OF_ASC_NODE":"47.6421","ELEMENT_SET_NO":"999"},{"ELEMENT_SET_NO":"999","RA_OF_ASC_NODE":"53.7928","MEAN_ELEMENT_THEORY":"SGP4","ARG_OF_PERICENTER":"65.6297","TLE_LINE1":"1 48689U 21044BD  22170.37613966 -.00000323  00000-0 -27912-5 0  9995","FILE":"3497010","LAUNCH_DATE":"2021-05-26","ECCENTRICITY":"0.00017610","CLASSIFICATION_TYPE":"U","MEAN_MOTION_DDOT":"0.0000000000000","COUNTRY_CODE":"US","OBJECT_NAME":"STARLINK-2617","TIME_SYSTEM":"UTC","NORAD_CAT_ID":"48689","APOAPSIS":"548.434","PERIAPSIS":"545.995","SITE":"AFETR","OBJECT_ID":"2021-044BD","SEMIMAJOR_AXIS":"6925.350","MEAN_MOTION":"15.06399550","REV_AT_EPOCH":"5952","OBJECT_TYPE":"PAYLOAD","EPOCH":"2022-06-19T09:01:38.466624","INCLINATION":"53.0574","PERIOD":"95.592","DECAY_DATE":null,"MEAN_MOTION_DOT":"-0.00000323","MEAN_ANOMALY":"294.4875","RCS_SIZE":"LARGE","EPHEMERIS_TYPE":"0","CENTER_NAME":"EARTH","TLE_LINE2":"2 48689  53.0574  53.7928 0001761  65.6297 294.4875 15.06399550 59528","GP_ID":"206416220","REF_FRAME":"TEME","BSTAR":"-0.00000279120000"},{"LAUNCH_DATE":"2021-05-26","ECCENTRICITY":"0.00015430","CLASSIFICATION_TYPE":"U","MEAN_MOTION_DDOT":"0.0000000000000","COUNTRY_CODE":"US","OBJECT_NAME":"STARLINK-2740","TIME_SYSTEM":"UTC","ELEMENT_SET_NO":"999","RA_OF_ASC_NODE":"65.5812","MEAN_ELEMENT_THEORY":"SGP4","FILE":"3497010","TLE_LINE1":"1 48690U 21044BE  22169.98453501 -.00001550  00000-0 -85248-4 0  9997","ARG_OF_PERICENTER":"81.5338","INCLINATION":"53.0580","PERIOD":"95.593","DECAY_DATE":null,"MEAN_ANOMALY":"278.5826","MEAN_MOTION_DOT":"-0.00001550","TLE_LINE2":"2 48690  53.0580  65.5812 0001543  81.5338 278.5826 15.06382566 59327","CENTER_NAME":"EARTH","RCS_SIZE":"LARGE","EPHEMERIS_TYPE":"0","BSTAR":"-0.00008524800000","REF_FRAME":"TEME","GP_ID":"206415469","NORAD_CAT_ID":"48690","APOAPSIS":"548.336","PERIAPSIS":"546.198","SITE":"AFETR","MEAN_MOTION":"15.06382566","SEMIMAJOR_AXIS":"6925.402","OBJECT_ID":"2021-044BE","REV_AT_EPOCH":"5932","EPOCH":"2022-06-18T23:37:43.824864","OBJECT_TYPE":"PAYLOAD"},{"PERIOD":"95.592","DECAY_DATE":null,"INCLINATION":"53.0557","REF_FRAME":"TEME","GP_ID":"206447524","BSTAR":"0.00025968000000","MEAN_MOTION_DOT":"0.00003588","MEAN_ANOMALY":"292.7331","EPHEMERIS_TYPE":"0","RCS_SIZE":"LARGE","TLE_LINE2":"2 48691  53.0557  56.5340 0001734  67.3841 292.7331 15.06399970 59530","CENTER_NAME":"EARTH","SITE":"AFETR","OBJECT_ID":"2021-044BF","SEMIMAJOR_AXIS":"6925.349","MEAN_MOTION":"15.06399970","NORAD_CAT_ID":"48691","APOAPSIS":"548.415","PERIAPSIS":"546.013","EPOCH":"2022-06-19T21:16:06.746880","OBJECT_TYPE":"PAYLOAD","REV_AT_EPOCH":"5953","CLASSIFICATION_TYPE":"U","MEAN_MOTION_DDOT":"0.0000000000000","LAUNCH_DATE":"2021-05-26","ECCENTRICITY":"0.00017340","OBJECT_NAME":"STARLINK-2750","TIME_SYSTEM":"UTC","COUNTRY_CODE":"US","RA_OF_ASC_NODE":"56.5340","ELEMENT_SET_NO":"999","ARG_OF_PERICENTER":"67.3841","TLE_LINE1":"1 48691U 21044BF  22170.88618920  .00003588  00000-0  25968-3 0  9990","FILE":"3497669","MEAN_ELEMENT_THEORY":"SGP4"},{"APOAPSIS":"548.178","NORAD_CAT_ID":"48692","PERIAPSIS":"546.314","SITE":"AFETR","MEAN_MOTION":"15.06389376","SEMIMAJOR_AXIS":"6925.381","OBJECT_ID":"2021-044BG","REV_AT_EPOCH":"5950","OBJECT_TYPE":"PAYLOAD","EPOCH":"2022-06-19T16:08:17.450880","INCLINATION":"53.0554","PERIOD":"95.593","DECAY_DATE":null,"MEAN_ANOMALY":"286.5214","MEAN_MOTION_DOT":"0.00001713","CENTER_NAME":"EARTH","TLE_LINE2":"2 48692  53.0554  57.6112 0001346  73.5923 286.5214 15.06389376 59503","EPHEMERIS_TYPE":"0","RCS_SIZE":"LARGE","BSTAR":"0.00013392000000","GP_ID":"206446278","REF_FRAME":"TEME","ELEMENT_SET_NO":"999","RA_OF_ASC_NODE":"57.6112","MEAN_ELEMENT_THEORY":"SGP4","FILE":"3497669","TLE_LINE1":"1 48692U 21044BG  22170.67242420  .00001713  00000-0  13392-3 0  9992","ARG_OF_PERICENTER":"73.5923","ECCENTRICITY":"0.00013460","LAUNCH_DATE":"2021-05-26","CLASSIFICATION_TYPE":"U","MEAN_MOTION_DDOT":"0.0000000000000","COUNTRY_CODE":"US","OBJECT_NAME":"STARLINK-2752","TIME_SYSTEM":"UTC"},{"COUNTRY_CODE":"US","OBJECT_NAME":"STARLINK-2618","TIME_SYSTEM":"UTC","ECCENTRICITY":"0.00015320","LAUNCH_DATE":"2021-05-26","CLASSIFICATION_TYPE":"U","MEAN_MOTION_DDOT":"0.0000000000000","MEAN_ELEMENT_THEORY":"SGP4","TLE_LINE1":"1 48693U 21044BH  22170.87925819  .00000603  00000-0  59397-4 0  9998","ARG_OF_PERICENTER":"67.3303","FILE":"3497669","ELEMENT_SET_NO":"999","RA_OF_ASC_NODE":"61.5603","MEAN_ANOMALY":"292.7848","MEAN_MOTION_DOT":"0.00000603","RCS_SIZE":"LARGE","EPHEMERIS_TYPE":"0","TLE_LINE2":"2 48693  53.0556  61.5603 0001532  67.3303 292.7848 15.06392399 59461","CENTER_NAME":"EARTH","GP_ID":"206446526","REF_FRAME":"TEME","BSTAR":"0.00005939700000","INCLINATION":"53.0556","PERIOD":"95.593","DECAY_DATE":null,"REV_AT_EPOCH":"5946","OBJECT_TYPE":"PAYLOAD","EPOCH":"2022-06-19T21:06:07.907616","APOAPSIS":"548.298","NORAD_CAT_ID":"48693","PERIAPSIS":"546.176","SITE":"AFETR","SEMIMAJOR_AXIS":"6925.372","OBJECT_ID":"2021-044BH","MEAN_MOTION":"15.06392399"},{"ELEMENT_SET_NO":"999","RA_OF_ASC_NODE":"66.6937","MEAN_ELEMENT_THEORY":"SGP4","FILE":"3497669","TLE_LINE1":"1 48694U 21044BJ  22170.84746185  .00000408  00000-0  46333-4 0  9992","ARG_OF_PERICENTER":"52.3361","LAUNCH_DATE":"2021-05-26","ECCENTRICITY":"0.00018370","MEAN_MOTION_DDOT":"0.0000000000000","CLASSIFICATION_TYPE":"U","COUNTRY_CODE":"US","TIME_SYSTEM":"UTC","OBJECT_NAME":"STARLINK-2748","PERIAPSIS":"545.953","APOAPSIS":"548.497","NORAD_CAT_ID":"48694","MEAN_MOTION":"15.06396220","SEMIMAJOR_AXIS":"6925.360","OBJECT_ID":"2021-044BJ","SITE":"AFETR","REV_AT_EPOCH":"5938","OBJECT_TYPE":"PAYLOAD","EPOCH":"2022-06-19T20:20:20.703840","INCLINATION":"53.0579","DECAY_DATE":null,"PERIOD":"95.592","CENTER_NAME":"EARTH","TLE_LINE2":"2 48694  53.0579  66.6937 0001837  52.3361 307.7794 15.06396220 59384","RCS_SIZE":"LARGE","EPHEMERIS_TYPE":"0","MEAN_ANOMALY":"307.7794","MEAN_MOTION_DOT":"0.00000408","BSTAR":"0.00004633300000","GP_ID":"206447778","REF_FRAME":"TEME"}];
